NORAD_CAT_ID,OBJECT_NAME,OBJECT_TYPE,EPOCH,MEAN_MOTION,ECCENTRICITY,INCLINATION,RA_OF_ASC_NODE,ARG_OF_PERICENTER,MEAN_ANOMALY,BSTAR,MEAN_MOTION_DOT,MEAN_MOTION_DDOT,TLE_LINE0,TLE_LINE1,TLE_LINE2,SEMIMAJOR_AXIS,PERIOD,APOGEE,PERIGEE,DECAYED
54164.0,STARLINK-5278,PAYLOAD,2024-06-10 18:49:56,15.08848882,0.0001268,53.2181,343.5066,90.8311,269.2827,0.00023054,3.384e-05,0.0,0 STARLINK-5278,1 54164U 22141H   24162.78468290  .00003384  00000-0  23054-3 0  9994,2 54164  53.2181 343.5066 0001268  90.8311 269.2827 15.08848882 89700,6917.853,95.437,540.595,538.841,0.0
54164.0,STARLINK-5278,PAYLOAD,2024-06-10 22:00:42,15.08853032,0.0001376,53.2189,342.9127,90.4824,269.6325,0.00048142,7.385e-05,0.0,0 STARLINK-5278,1 54164U 22141H   24162.91716329  .00007385  00000-0  48142-3 0  9998,2 54164  53.2189 342.9127 0001376  90.4824 269.6325 15.08853032 89726,6917.841,95.437,540.657,538.754,0.0
54164.0,STARLINK-5278,PAYLOAD,2024-06-11 12:19:11,15.08844643,0.0001364,53.2185,340.2367,93.5432,266.5717,0.00031664,4.756e-05,0.0,0 STARLINK-5278,1 54164U 22141H   24163.51332752  .00004756  00000-0  31664-3 0  9999,2 54164  53.2185 340.2367 0001364  93.5432 266.5717 15.08844643 89814,6917.866,95.437,540.675,538.788,0.0
54164.0,STARLINK-5278,PAYLOAD,2024-06-12 04:13:02,15.0884345,0.0001206,53.2176,337.2626,70.9945,289.1178,0.00026199,3.885e-05,0.0,0 STARLINK-5278,1 54164U 22141H   24164.17572529  .00003885  00000-0  26199-3 0  9999,2 54164  53.2176 337.2626 0001206  70.9945 289.1178 15.08843450 89919,6917.87,95.437,540.569,538.901,0.0
54164.0,STARLINK-5278,PAYLOAD,2024-06-12 18:31:31,15.08831784,0.0001384,53.2188,334.5907,87.6687,272.4464,-0.00011042,-2.044e-05,0.0,0 STARLINK-5278,1 54164U 22141H   24164.77189150 -.00002044  00000-0 -11042-3 0  9998,2 54164  53.2188 334.5907 0001384  87.6687 272.4464 15.08831784 90001,6917.906,95.438,540.728,538.813,0.0
54164.0,STARLINK-5278,PAYLOAD,2024-06-13 10:25:22,15.08842548,0.0001487,53.2195,331.6166,83.4557,276.6605,0.00017575,2.51e-05,0.0,0 STARLINK-5278,1 54164U 22141H   24165.43429027  .00002510  00000-0  17575-3 0  9995,2 54164  53.2195 331.6166 0001487  83.4557 276.6605 15.08842548 90102,6917.873,95.437,540.766,538.709,0.0
54164.0,STARLINK-5278,PAYLOAD,2024-06-13 18:22:18,15.08846722,0.0001383,53.2192,330.1297,86.8807,273.2343,0.00024845,3.669e-05,0.0,0 STARLINK-5278,1 54164U 22141H   24165.76548804  .00003669  00000-0  24845-3 0  9990,2 54164  53.2192 330.1297 0001383  86.8807 273.2343 15.08846722 90153,6917.86,95.437,540.682,538.768,0.0
54164.0,STARLINK-5278,PAYLOAD,2024-06-14 03:54:37,15.08843295,0.0001286,53.2182,328.3453,96.8148,263.299,0.00014638,2.043e-05,0.0,0 STARLINK-5278,1 54164U 22141H   24166.16292835  .00002043  00000-0  14638-3 0  9999,2 54164  53.2182 328.3453 0001286  96.8148 263.2990 15.08843295 90212,6917.87,95.437,540.625,538.846,0.0
54164.0,STARLINK-5278,PAYLOAD,2024-06-14 19:48:28,15.08844228,0.0001261,53.2177,325.3695,87.9833,272.1304,0.000142,1.973e-05,0.0,0 STARLINK-5278,1 54164U 22141H   24166.82532905  .00001973  00000-0  14200-3 0  9993,2 54164  53.2177 325.3695 0001261  87.9833 272.1304 15.08844228 90312,6917.867,95.437,540.605,538.86,0.0
54164.0,STARLINK-5278,PAYLOAD,2024-06-15 14:53:05,15.0885044,0.0001227,53.218,321.8002,94.3368,265.7764,0.00019395,2.801e-05,0.0,0 STARLINK-5278,1 54164U 22141H   24167.62020503  .00002801  00000-0  19395-3 0  9999,2 54164  53.2180 321.8002 0001227  94.3368 265.7764 15.08850440 90430,6917.848,95.437,540.562,538.865,0.0
54164.0,STARLINK-5278,PAYLOAD,2024-06-15 16:28:28,15.08852138,0.0001075,53.2164,321.5032,94.9709,265.1406,0.00023848,3.511e-05,0.0,0 STARLINK-5278,1 54164U 22141H   24167.68644377  .00003511  00000-0  23848-3 0  9993,2 54164  53.2164 321.5032 0001075  94.9709 265.1406 15.08852138 90442,6917.843,95.437,540.452,538.965,0.0
54164.0,STARLINK-5278,PAYLOAD,2024-06-16 03:36:10,15.08846418,0.0001349,53.218,319.42,86.9491,273.1655,0.00019558,2.827e-05,0.0,0 STARLINK-5278,1 54164U 22141H   24168.15012579  .00002827  00000-0  19558-3 0  9991,2 54164  53.2180 319.4200 0001349  86.9491 273.1655 15.08846418 90513,6917.861,95.437,540.659,538.793,0.0
54164.0,STARLINK-5278,PAYLOAD,2024-06-16 16:19:16,15.08842074,0.0001463,53.2191,317.04,92.8962,267.2198,0.00010511,1.385e-05,0.0,0 STARLINK-5278,1 54164U 22141H   24168.68004790  .00001385  00000-0  10511-3 0  9993,2 54164  53.2191 317.0400 0001463  92.8962 267.2198 15.08842074 90595,6917.874,95.437,540.751,538.727,0.0
54164.0,STARLINK-5278,PAYLOAD,2024-06-17 16:10:03,15.08842412,0.0001427,53.2184,312.5822,87.8324,272.2832,3.4862e-05,2.67e-06,0.0,0 STARLINK-5278,1 54164U 22141H   24169.67364922  .00000267  00000-0  34862-4 0  9993,2 54164  53.2184 312.5822 0001427  87.8324 272.2832 15.08842412 90745,6917.873,95.437,540.725,538.751,0.0
54164.0,STARLINK-5278,PAYLOAD,2024-06-18 12:50:05,15.0882239,0.0001264,53.2177,308.7172,87.3415,272.7722,0.00051524,7.918e-05,0.0,0 STARLINK-5278,1 54164U 22141H   24170.53478302  .00007918  00000-0  51524-3 0  9991,2 54164  53.2177 308.7172 0001264  87.3415 272.7722 15.08822390 90877,6917.934,95.439,540.674,538.925,0.0
54164.0,STARLINK-5278,PAYLOAD,2024-06-18 14:25:27,15.08836872,0.000136,53.2177,308.419,85.9596,274.1551,8.9421e-05,1.135e-05,0.0,0 STARLINK-5278,1 54164U 22141H   24170.60101406  .00001135  00000-0  89421-4 0  9990,2 54164  53.2177 308.4190 0001360  85.9596 274.1551 15.08836872 90882,6917.89,95.438,540.696,538.814,0.0
54164.0,STARLINK-5278,PAYLOAD,2024-06-18 19:11:36,15.08841102,0.0001337,53.2185,307.528,86.2223,273.8922,0.00013554,1.87e-05,0.0,0 STARLINK-5278,1 54164U 22141H   24170.79973039  .00001870  00000-0  13554-3 0  9998,2 54164  53.2185 307.5280 0001337  86.2223 273.8922 15.08841102 90910,6917.877,95.437,540.667,538.817,0.0
54164.0,STARLINK-5278,PAYLOAD,2024-06-19 14:16:14,15.08839387,0.0001403,53.217,303.9566,97.2871,262.828,9.1104e-05,1.162e-05,0.0,0 STARLINK-5278,1 54164U 22141H   24171.59461396  .00001162  00000-0  91104-4 0  9997,2 54164  53.2170 303.9566 0001403  97.2871 262.8280 15.08839387 91037,6917.882,95.438,540.718,538.777,0.0
54164.0,STARLINK-5278,PAYLOAD,2024-06-19 15:51:37,15.08840429,0.0001144,53.2177,303.6631,86.2891,273.8232,0.00013912,1.927e-05,0.0,0 STARLINK-5278,1 54164U 22141H   24171.66085322  .00001927  00000-0  13912-3 0  9995,2 54164  53.2177 303.6631 0001144  86.2891 273.8232 15.08840429 91045,6917.879,95.438,540.535,538.953,0.0
54164.0,STARLINK-5278,PAYLOAD,2024-06-20 14:07:01,15.08840275,0.0001066,53.2172,299.4997,80.0742,280.037,3.0193e-05,1.93e-06,0.0,0 STARLINK-5278,1 54164U 22141H   24172.58821470  .00000193  00000-0  30193-4 0  9994,2 54164  53.2172 299.4997 0001066  80.0742 280.0370 15.08840275 91184,6917.88,95.438,540.482,539.007,0.0
54164.0,STARLINK-5278,PAYLOAD,2024-06-20 18:53:10,15.08846541,0.0001064,53.2168,298.6071,79.0915,281.0197,0.00011414,1.53e-05,0.0,0 STARLINK-5278,1 54164U 22141H   24172.78693144  .00001530  00000-0  11414-3 0  9991,2 54164  53.2168 298.6071 0001064  79.0915 281.0197 15.08846541 91215,6917.86,95.437,540.461,538.989,0.0
54164.0,STARLINK-5278,PAYLOAD,2024-06-21 12:22:25,15.08840622,0.0001391,53.2157,295.3349,80.2692,279.8458,2.4828e-05,1.07e-06,0.0,0 STARLINK-5278,1 54164U 22141H   24173.51557607  .00000107  00000-0  24828-4 0  9999,2 54164  53.2157 295.3349 0001391  80.2692 279.8458 15.08840622 91325,6917.878,95.438,540.706,538.781,0.0
54164.0,STARLINK-5278,PAYLOAD,2024-06-21 13:57:49,15.08840421,0.0001126,53.2171,295.039,87.5943,272.5178,5.1463e-05,5.31e-06,0.0,0 STARLINK-5278,1 54164U 22141H   24173.58181871  .00000531  00000-0  51463-4 0  9998,2 54164  53.2171 295.0390 0001126  87.5943 272.5178 15.08840421 91336,6917.879,95.438,540.523,538.965,0.0
54164.0,STARLINK-5278,PAYLOAD,2024-06-21 17:08:35,15.08845179,0.0001161,53.218,294.4453,92.5416,267.5709,9.3345e-05,1.198e-05,0.0,0 STARLINK-5278,1 54164U 22141H   24173.71429453  .00001198  00000-0  93345-4 0  9999,2 54164  53.2180 294.4453 0001161  92.5416 267.5709 15.08845179 91350,6917.865,95.437,540.533,538.926,0.0
54164.0,STARLINK-5278,PAYLOAD,2024-06-22 12:13:13,15.08839466,0.0001261,53.2188,290.8762,94.4492,265.6644,1.0656e-05,-1.18e-06,0.0,0 STARLINK-5278,1 54164U 22141H   24174.50918224 -.00000118  00000-0  10656-4 0  9992,2 54164  53.2188 290.8762 0001261  94.4492 265.6644 15.08839466 91479,6917.882,95.438,540.619,538.875,0.0
54164.0,STARLINK-5278,PAYLOAD,2024-06-22 13:48:36,15.08839258,0.0001248,53.2188,290.5789,95.4013,264.7122,8.3205e-06,-1.55e-06,0.0,0 STARLINK-5278,1 54164U 22141H   24174.57542237 -.00000155  00000-0  83205-5 0  9998,2 54164  53.2188 290.5789 0001248  95.4013 264.7122 15.08839258 91481,6917.883,95.438,540.611,538.884,0.0
54164.0,STARLINK-5278,PAYLOAD,2024-06-22 15:23:59,15.08838523,0.0001157,53.2182,290.2785,94.6388,265.4737,2.9876e-05,1.88e-06,0.0,0 STARLINK-5278,1 54164U 22141H   24174.64166143  .00000188  00000-0  29876-4 0  9992,2 54164  53.2182 290.2785 0001157  94.6388 265.4737 15.08838523 91498,6917.885,95.438,540.55,538.95,0.0
54164.0,STARLINK-5278,PAYLOAD,2024-06-23 13:39:22,15.08846788,0.0001284,53.2183,286.1174,113.6157,246.497,8.2394e-05,1.024e-05,0.0,0 STARLINK-5278,1 54164U 22141H   24175.56901469  .00001024  00000-0  82394-4 0  9996,2 54164  53.2183 286.1174 0001284 113.6157 246.4970 15.08846788 91638,6917.86,95.437,540.613,538.836,0.0
54164.0,STARLINK-5278,PAYLOAD,2024-06-24 13:30:09,15.08848002,0.0001309,53.2172,281.6596,68.2234,291.8897,0.00013242,1.821e-05,0.0,0 STARLINK-5278,1 54164U 22141H   24176.56261294  .00001821  00000-0  13242-3 0  9992,2 54164  53.2172 281.6596 0001309  68.2234 291.8897 15.08848002 91782,6917.856,95.437,540.626,538.815,0.0
54164.0,STARLINK-5278,PAYLOAD,2024-06-25 13:20:57,15.08840645,0.0001261,53.2171,277.1974,81.6191,278.4944,-8.502e-06,-4.23e-06,0.0,0 STARLINK-5278,1 54164U 22141H   24177.55621878 -.00000423  00000-0 -85020-5 0  9994,2 54164  53.2171 277.1974 0001261  81.6191 278.4944 15.08840645 91935,6917.878,95.438,540.616,538.871,0.0
